<?xml version="1.0" encoding="UTF-8"?>
<ndm xmlns:xsi="http://www.w3.org/2001/XMLSchema-instance" xsi:noNamespaceSchemaLocation="https://sanaregistry.org/r/ndmxml_unqualified/ndmxml-2.0.0-master-2.0.xsd">
<omm id="CCSDS_OMM_VERS" version="2.0">
<header><CREATION_DATE/><ORIGINATOR/></header><body><segment><metadata><OBJECT_NAME>ONEWEB-0033</OBJECT_NAME><OBJECT_ID>2020-008M</OBJECT_ID><CENTER_NAME>EARTH</CENTER_NAME><REF_FRAME>TEME</REF_FRAME><TIME_SYSTEM>UTC</TIME_SYSTEM><MEAN_ELEMENT_THEORY>SGP4</MEAN_ELEMENT_THEORY></metadata><data><meanElements><EPOCH>2024-11-29T18:30:08.521344</EPOCH><MEAN_MOTION>13.10375968</MEAN_MOTION><ECCENTRICITY>.0001237</ECCENTRICITY><INCLINATION>87.8893</INCLINATION><RA_OF_ASC_NODE>148.7031</RA_OF_ASC_NODE><ARG_OF_PERICENTER>88.9550</ARG_OF_PERICENTER><MEAN_ANOMALY>271.1719</MEAN_ANOMALY></meanElements><tleParameters><EPHEMERIS_TYPE>0</EPHEMERIS_TYPE><CLASSIFICATION_TYPE>U</CLASSIFICATION_TYPE><NORAD_CAT_ID>45142</NORAD_CAT_ID><ELEMENT_SET_NO>999</ELEMENT_SET_NO><REV_AT_EPOCH>23429</REV_AT_EPOCH><BSTAR>.34139E-3</BSTAR><MEAN_MOTION_DOT>.132E-5</MEAN_MOTION_DOT><MEAN_MOTION_DDOT>0</MEAN_MOTION_DDOT></tleParameters></data></segment></body></omm>
<omm id="CCSDS_OMM_VERS" version="2.0">
<header><CREATION_DATE/><ORIGINATOR/></header><body><segment><metadata><OBJECT_NAME>ONEWEB-0035</OBJECT_NAME><OBJECT_ID>2020-008N</OBJECT_ID><CENTER_NAME>EARTH</CENTER_NAME><REF_FRAME>TEME</REF_FRAME><TIME_SYSTEM>UTC</TIME_SYSTEM><MEAN_ELEMENT_THEORY>SGP4</MEAN_ELEMENT_THEORY></metadata><data><meanElements><EPOCH>2024-11-29T17:25:35.883264</EPOCH><MEAN_MOTION>13.10369080</MEAN_MOTION><ECCENTRICITY>.0001328</ECCENTRICITY><INCLINATION>87.8891</INCLINATION><RA_OF_ASC_NODE>148.7024</RA_OF_ASC_NODE><ARG_OF_PERICENTER>88.8415</ARG_OF_PERICENTER><MEAN_ANOMALY>271.2865</MEAN_ANOMALY></meanElements><tleParameters><EPHEMERIS_TYPE>0</EPHEMERIS_TYPE><CLASSIFICATION_TYPE>U</CLASSIFICATION_TYPE><NORAD_CAT_ID>45143</NORAD_CAT_ID><ELEMENT_SET_NO>999</ELEMENT_SET_NO><REV_AT_EPOCH>23401</REV_AT_EPOCH><BSTAR>.63565E-3</BSTAR><MEAN_MOTION_DOT>.235E-5</MEAN_MOTION_DOT><MEAN_MOTION_DDOT>0</MEAN_MOTION_DDOT></tleParameters></data></segment></body></omm>
<omm id="CCSDS_OMM_VERS" version="2.0">
<header><CREATION_DATE/><ORIGINATOR/></header><body><segment><metadata><OBJECT_NAME>ONEWEB-0036</OBJECT_NAME><OBJECT_ID>2020-008P</OBJECT_ID><CENTER_NAME>EARTH</CENTER_NAME><REF_FRAME>TEME</REF_FRAME><TIME_SYSTEM>UTC</TIME_SYSTEM><MEAN_ELEMENT_THEORY>SGP4</MEAN_ELEMENT_THEORY></metadata><data><meanElements><EPOCH>2024-11-29T17:11:16.823616</EPOCH><MEAN_MOTION>13.10313249</MEAN_MOTION><ECCENTRICITY>.0001275</ECCENTRICITY><INCLINATION>87.8888</INCLINATION><RA_OF_ASC_NODE>148.6524</RA_OF_ASC_NODE><ARG_OF_PERICENTER>115.1779</ARG_OF_PERICENTER><MEAN_ANOMALY>244.9480</MEAN_ANOMALY></meanElements><tleParameters><EPHEMERIS_TYPE>0</EPHEMERIS_TYPE><CLASSIFICATION_TYPE>U</CLASSIFICATION_TYPE><NORAD_CAT_ID>45144</NORAD_CAT_ID><ELEMENT_SET_NO>999</ELEMENT_SET_NO><REV_AT_EPOCH>23444</REV_AT_EPOCH><BSTAR>-.21949E-1</BSTAR><MEAN_MOTION_DOT>-.7636E-4</MEAN_MOTION_DOT><MEAN_MOTION_DDOT>0</MEAN_MOTION_DDOT></tleParameters></data></segment></body></omm>
<omm id="CCSDS_OMM_VERS" version="2.0">
<header><CREATION_DATE/><ORIGINATOR/></header><body><segment><metadata><OBJECT_NAME>ONEWEB-0038</OBJECT_NAME><OBJECT_ID>2020-008Q</OBJECT_ID><CENTER_NAME>EARTH</CENTER_NAME><REF_FRAME>TEME</REF_FRAME><TIME_SYSTEM>UTC</TIME_SYSTEM><MEAN_ELEMENT_THEORY>SGP4</MEAN_ELEMENT_THEORY></metadata><data><meanElements><EPOCH>2024-11-29T17:07:12.606240</EPOCH><MEAN_MOTION>13.11428760</MEAN_MOTION><ECCENTRICITY>.0001962</ECCENTRICITY><INCLINATION>87.8909</INCLINATION><RA_OF_ASC_NODE>133.5270</RA_OF_ASC_NODE><ARG_OF_PERICENTER>73.3329</ARG_OF_PERICENTER><MEAN_ANOMALY>286.8014</MEAN_ANOMALY></meanElements><tleParameters><EPHEMERIS_TYPE>0</EPHEMERIS_TYPE><CLASSIFICATION_TYPE>U</CLASSIFICATION_TYPE><NORAD_CAT_ID>45145</NORAD_CAT_ID><ELEMENT_SET_NO>999</ELEMENT_SET_NO><REV_AT_EPOCH>23634</REV_AT_EPOCH><BSTAR>.16049E-2</BSTAR><MEAN_MOTION_DOT>.582E-5</MEAN_MOTION_DOT><MEAN_MOTION_DDOT>0</MEAN_MOTION_DDOT></tleParameters></data></segment></body></omm>
<omm id="CCSDS_OMM_VERS" version="2.0">
<header><CREATION_DATE/><ORIGINATOR/></header><body><segment><metadata><OBJECT_NAME>ONEWEB-0039</OBJECT_NAME><OBJECT_ID>2020-008R</OBJECT_ID><CENTER_NAME>EARTH</CENTER_NAME><REF_FRAME>TEME</REF_FRAME><TIME_SYSTEM>UTC</TIME_SYSTEM><MEAN_ELEMENT_THEORY>SGP4</MEAN_ELEMENT_THEORY></metadata><data><meanElements><EPOCH>2024-11-29T22:14:50.123328</EPOCH><MEAN_MOTION>13.10375453</MEAN_MOTION><ECCENTRICITY>.0002107</ECCENTRICITY><INCLINATION>87.8903</INCLINATION><RA_OF_ASC_NODE>148.6325</RA_OF_ASC_NODE><ARG_OF_PERICENTER>81.7314</ARG_OF_PERICENTER><MEAN_ANOMALY>278.4052</MEAN_ANOMALY></meanElements><tleParameters><EPHEMERIS_TYPE>0</EPHEMERIS_TYPE><CLASSIFICATION_TYPE>U</CLASSIFICATION_TYPE><NORAD_CAT_ID>45146</NORAD_CAT_ID><ELEMENT_SET_NO>999</ELEMENT_SET_NO><REV_AT_EPOCH>23426</REV_AT_EPOCH><BSTAR>.10505E-2</BSTAR><MEAN_MOTION_DOT>.379E-5</MEAN_MOTION_DOT><MEAN_MOTION_DDOT>0</MEAN_MOTION_DDOT></tleParameters></data></segment></body></omm>
<omm id="CCSDS_OMM_VERS" version="2.0">
<header><CREATION_DATE/><ORIGINATOR/></header><body><segment><metadata><OBJECT_NAME>ONEWEB-0040</OBJECT_NAME><OBJECT_ID>2020-008S</OBJECT_ID><CENTER_NAME>EARTH</CENTER_NAME><REF_FRAME>TEME</REF_FRAME><TIME_SYSTEM>UTC</TIME_SYSTEM><MEAN_ELEMENT_THEORY>SGP4</MEAN_ELEMENT_THEORY></metadata><data><meanElements><EPOCH>2024-11-29T18:25:21.119520</EPOCH><MEAN_MOTION>13.10376438</MEAN_MOTION><ECCENTRICITY>.0001468</ECCENTRICITY><INCLINATION>87.8903</INCLINATION><RA_OF_ASC_NODE>148.6765</RA_OF_ASC_NODE><ARG_OF_PERICENTER>87.2632</ARG_OF_PERICENTER><MEAN_ANOMALY>272.8663</MEAN_ANOMALY></meanElements><tleParameters><EPHEMERIS_TYPE>0</EPHEMERIS_TYPE><CLASSIFICATION_TYPE>U</CLASSIFICATION_TYPE><NORAD_CAT_ID>45147</NORAD_CAT_ID><ELEMENT_SET_NO>999</ELEMENT_SET_NO><REV_AT_EPOCH>23394</REV_AT_EPOCH><BSTAR>-.14612E-3</BSTAR><MEAN_MOTION_DOT>-.38E-6</MEAN_MOTION_DOT><MEAN_MOTION_DDOT>0</MEAN_MOTION_DDOT></tleParameters></data></segment></body></omm>
<omm id="CCSDS_OMM_VERS" version="2.0">
<header><CREATION_DATE/><ORIGINATOR/></header><body><segment><metadata><OBJECT_NAME>ONEWEB-0043</OBJECT_NAME><OBJECT_ID>2020-008U</OBJECT_ID><CENTER_NAME>EARTH</CENTER_NAME><REF_FRAME>TEME</REF_FRAME><TIME_SYSTEM>UTC</TIME_SYSTEM><MEAN_ELEMENT_THEORY>SGP4</MEAN_ELEMENT_THEORY></metadata><data><meanElements><EPOCH>2024-11-29T18:27:44.445024</EPOCH><MEAN_MOTION>13.10377804</MEAN_MOTION><ECCENTRICITY>.0002012</ECCENTRICITY><INCLINATION>87.8893</INCLINATION><RA_OF_ASC_NODE>148.6738</RA_OF_ASC_NODE><ARG_OF_PERICENTER>92.1248</ARG_OF_PERICENTER><MEAN_ANOMALY>268.0110</MEAN_ANOMALY></meanElements><tleParameters><EPHEMERIS_TYPE>0</EPHEMERIS_TYPE><CLASSIFICATION_TYPE>U</CLASSIFICATION_TYPE><NORAD_CAT_ID>45149</NORAD_CAT_ID><ELEMENT_SET_NO>999</ELEMENT_SET_NO><REV_AT_EPOCH>23426</REV_AT_EPOCH><BSTAR>.17303E-3</BSTAR><MEAN_MOTION_DOT>.73E-6</MEAN_MOTION_DOT><MEAN_MOTION_DDOT>0</MEAN_MOTION_DDOT></tleParameters></data></segment></body></omm>
<omm id="CCSDS_OMM_VERS" version="2.0">
<header><CREATION_DATE/><ORIGINATOR/></header><body><segment><metadata><OBJECT_NAME>ONEWEB-0044</OBJECT_NAME><OBJECT_ID>2020-008V</OBJECT_ID><CENTER_NAME>EARTH</CENTER_NAME><REF_FRAME>TEME</REF_FRAME><TIME_SYSTEM>UTC</TIME_SYSTEM><MEAN_ELEMENT_THEORY>SGP4</MEAN_ELEMENT_THEORY></metadata><data><meanElements><EPOCH>2024-11-29T17:18:26.109792</EPOCH><MEAN_MOTION>13.10369958</MEAN_MOTION><ECCENTRICITY>.0001805</ECCENTRICITY><INCLINATION>87.8871</INCLINATION><RA_OF_ASC_NODE>148.6770</RA_OF_ASC_NODE><ARG_OF_PERICENTER>90.7260</ARG_OF_PERICENTER><MEAN_ANOMALY>269.4074</MEAN_ANOMALY></meanElements><tleParameters><EPHEMERIS_TYPE>0</EPHEMERIS_TYPE><CLASSIFICATION_TYPE>U</CLASSIFICATION_TYPE><NORAD_CAT_ID>45150</NORAD_CAT_ID><ELEMENT_SET_NO>999</ELEMENT_SET_NO><REV_AT_EPOCH>23455</REV_AT_EPOCH><BSTAR>.12903E-2</BSTAR><MEAN_MOTION_DOT>.463E-5</MEAN_MOTION_DOT><MEAN_MOTION_DDOT>0</MEAN_MOTION_DDOT></tleParameters></data></segment></body></omm>

</ndm>
