ONEWEB-0033             
1 45142U 20008M   24334.77093196  .00000132  00000+0  34139-3 0  9992
2 45142  87.8893 148.7031 0001237  88.9550 271.1719 13.10375968234294
ONEWEB-0035             
1 45143U 20008N   24334.72610976  .00000235  00000+0  63565-3 0  9998
2 45143  87.8891 148.7024 0001328  88.8415 271.2865 13.10369080234016
ONEWEB-0036             
1 45144U 20008P   24334.71616694 -.00007636  00000+0 -21949-1 0  9993
2 45144  87.8888 148.6524 0001275 115.1779 244.9480 13.10313249234448
ONEWEB-0038             
1 45145U 20008Q   24334.71334035  .00000582  00000+0  16049-2 0  9997
2 45145  87.8909 133.5270 0001962  73.3329 286.8014 13.11428760236348
ONEWEB-0039             
1 45146U 20008R   24334.92696902  .00000379  00000+0  10505-2 0  9990
2 45146  87.8903 148.6325 0002107  81.7314 278.4052 13.10375453235044
ONEWEB-0040             
1 45147U 20008S   24334.76760555 -.00000038  00000+0 -14612-3 0  9997
2 45147  87.8903 148.6765 0001468  87.2632 272.8663 13.10376438233943
ONEWEB-0043             
1 45149U 20008U   24334.76926441  .00000073  00000+0  17303-3 0  9994
2 45149  87.8893 148.6738 0002012  92.1248 268.0110 13.10377804234265
ONEWEB-0044             
1 45150U 20008V   24334.72113553  .00000463  00000+0  12903-2 0  9997
2 45150  87.8871 148.6770 0001805  90.7260 269.4074 13.10369958234553
